OBJECT_NAME,OBJECT_ID,EPOCH,MEAN_MOTION,ECCENTRICITY,INCLINATION,RA_OF_ASC_NODE,ARG_OF_PERICENTER,MEAN_ANOMALY,EPHEMERIS_TYPE,CLASSIFICATION_TYPE,NORAD_CAT_ID,ELEMENT_SET_NO,REV_AT_EPOCH,BSTAR,MEAN_MOTION_DOT,MEAN_MOTION_DDOT
CUTE-1 (CO-55),2003-031E,2026-06-03T13:11:18.293856,14.24327019,.00086909,98.6736,163.2800,219.4250,140.6297,0,U,27844,999,18973,.16425086E-3,.336E-5,0
CUBESAT XI-IV (CO-57),2003-031J,2026-06-05T00:10:13.046016,14.23614257,.0008401,98.6767,164.4416,235.3371,124.7016,0,U,27848,999,18964,.14351E-3,.283E-5,0
CUBESAT XI-V,2005-043F,2026-06-04T23:14:19.792896,14.72598149,.001293,98.2974,311.3347,241.7427,118.2475,0,U,28895,999,9995,.27373E-3,.1691E-4,0
CUTE-1.7+APD II (CO-65),2008-021C,2026-06-05T02:48:39.934368,15.09331596,.0010589,97.8271,137.2864,74.0522,286.1872,0,U,32785,999,98337,.37629E-3,.5944E-4,0
CANX-2,2008-021H,2026-06-04T17:26:55.868064,15.05525197,.00123847,97.8638,135.2647,87.4446,272.8198,0,U,32790,999,98293,.30187993E-3,.4286E-4,0
SEEDS II (CO-66),2008-021J,2026-06-04T23:47:11.606784,15.32316594,.0002846,97.7517,153.3111,38.3892,321.7551,0,U,32791,999,98542,.68611E-3,.21364E-3,0
SWISSCUBE,2009-051B,2026-06-03T06:42:55.096704,14.62453382,.00053989,98.4045,61.9256,254.9932,105.0671,0,U,35932,999,88712,.25059349E-3,.122E-4,0
BEESAT-1,2009-051C,2026-06-04T17:16:09.800832,14.61699990,.0003911,98.3973,63.0518,267.5336,92.5417,0,U,35933,999,88736,.22006E-3,.1047E-4,0
ITUPSAT1,2009-051E,2026-06-04T16:47:20.224032,14.60421767,.0006134,98.4056,62.2366,280.9538,79.0971,0,U,35935,999,88691,.20796E-3,.958E-5,0
TISAT 1,2010-035E,2026-06-05T02:16:43.622112,15.31230464,.0000324,98.0706,101.5757,13.4506,346.6742,0,U,36799,999,86585,.79927E-3,.24075E-3,0
AEROCUBE 4.5A,2012-048K,2026-06-05T00:50:05.881920,15.87334447,.001889,64.6278,71.0977,214.1459,145.8485,0,U,38767,999,37072,.1044E-2,.278208E-2,.34355E-4
STRAND-1,2013-009E,2026-06-05T00:16:26.065056,14.37155961,.0007387,98.3919,336.5458,267.1306,92.9036,0,U,39090,999,69531,.12165E-3,.319E-5,0
BRITE-AUSTRIA,2013-009F,2026-06-05T00:27:25.036992,14.36537181,.0008967,98.3993,335.7563,277.6198,82.3970,0,U,39091,999,69530,.83363E-4,.202E-5,0
NEE-01 PEGASO,2013-018B,2026-06-03T11:09:53.669664,14.93586684,.00121772,98.1207,298.1637,203.9081,156.1574,0,U,39151,999,70865,.30779545E-3,.319E-4,0
POPACS 2,2013-055E,2026-06-05T00:42:50.967648,14.90917397,.0417287,80.9906,158.1064,232.8647,123.3771,0,U,39269,999,66140,.20339E-3,.11902E-3,0
POPACS 3,2013-055F,2026-06-04T22:56:30.492672,14.55874788,.0553154,81.0025,242.4436,107.2016,259.0486,0,U,39270,999,63677,.28872E-3,.12246E-3,0
ZACUBE-1 (TSHEPISOSAT),2013-066B,2026-06-05T03:25:04.005408,15.01107591,.0039897,97.8104,118.4142,290.2475,69.4462,0,U,39417,999,67892,.38812E-3,.4989E-4,0
WNISAT-1,2013-066H,2026-06-05T04:50:10.519296,14.58043740,.0161668,97.7190,306.2094,269.6563,88.6111,0,U,39423,999,66498,.13613E-3,.697E-5,0
TRITON-1,2013-066M,2026-06-05T03:21:21.305088,14.81661423,.0088412,97.8256,66.2215,273.9018,85.2091,0,U,39427,999,67230,.30772E-3,.2533E-4,0
GOMX-1,2013-066Q,2026-06-05T04:49:52.606848,14.69412373,.0130011,97.6487,357.4201,115.5827,245.8884,0,U,39430,999,66815,.33542E-3,.221E-4,0
CUBEBUG-2 (LO-74),2013-066AA,2026-06-03T07:55:56.668800,14.93641817,.00594532,97.8904,103.2522,73.9566,286.8190,0,U,39440,999,67492,.47122985E-3,.5093E-4,0
NEE-02 KRYSAOR,2013-066AB,2026-06-04T18:10:04.769760,14.86564783,.0067693,97.8893,95.0615,109.9850,250.8672,0,U,39441,999,67435,.27225E-3,.2457E-4,0
FUNCUBE-1 (AO-73),2013-066AE,2026-06-04T14:14:41.227008,15.09331351,.00346471,97.8278,126.7780,245.3456,114.4162,0,U,39444,999,67776,.50552791E-3,.8112E-4,0
UWE-3,2013-066AG,2026-06-04T15:34:58.249920,14.96922367,.00493262,97.8702,111.6406,3.6109,356.5458,0,U,39446,999,67570,.40572144E-3,.4713E-4,0
BRITE-CA1 (TORONTO),2014-033L,2026-06-04T22:38:49.517088,14.72659852,.0077622,97.9725,285.0983,316.8495,42.6646,0,U,40020,999,64041,.13337E-3,.836E-5,0
DUCHIFAT-1,2014-033M,2026-06-04T16:02:21.168384,15.62101054,.00048528,98.0472,213.0954,139.0185,221.1436,0,U,40021,999,65379,.10760804E-2,.95076E-3,0
NANOSATC-BR1,2014-033Q,2026-06-05T01:13:17.194080,15.31055935,.0003177,98.0722,187.3677,199.6617,160.4500,0,U,40024,999,65212,.65634E-3,.19638E-3,0
QB50P1,2014-033R,2026-06-05T00:32:32.836992,15.18067732,.0007004,98.0971,166.3174,266.2794,93.7637,0,U,40025,999,65118,.45812E-3,.9267E-4,0
QB50P2,2014-033Y,2026-06-05T05:05:26.582208,15.14995805,.0006748,98.0754,152.3486,204.2735,155.8179,0,U,40032,999,65085,.39174E-3,.7245E-4,0
PERSEUS-M2,2014-033AD,2026-06-05T02:04:31.999008,14.95478297,.0011595,97.9975,106.3814,349.3080,10.7892,0,U,40037,999,64897,.25703E-3,.2787E-4,0
